*******************************************************************************
 Revised: July 31, 2013                  Sun                                 10

 PHYSICAL PROPERTIES (updated 2018-Aug-15):
  GM, km^3/s^2          = 132712440041.93938  Mass, 10^24 kg        = ~1988500
  Vol. mean radius, km  = 695700              Volume, 10^12 km^3    = 1412000
  Solar radius (IAU)    = 696000 km           Mean density, g/cm^3  = 1.408
  Radius (photosphere)  = 696500 km           Angular diam at 1 AU  = 1919.3"
  Photosphere temp., K  = 6600 (bottom)       Photosphere temp., K  = 4400(top)
  Photospheric depth    = ~500 km             Chromospheric depth   = ~2500 km
  Flatness, f           = 0.00005             Adopted sid. rot. per.= 25.38 d
  Surface gravity       =  274.0 m/s^2        Escape speed, km/s    =  617.7
  Pole (RA,DEC), deg.   = (286.13, 63.87)     Obliquity to ecliptic = 7.25 deg.
  Solar constant (1 AU) = 1367.6 W/m^2        Luminosity, 10^24 J/s = 382.8
  Mass-energy conv rate = 4.260 x 10^9 kg/s   Effective temp, K     = 5772
  Sunspot cycle         = 11.4 yr             Cycle 24 sunspot min. = 2008 A.D.

  Motion relative to nearby stars = apex : R.A.= 271 deg.; DEC.= +30 deg.
                                    speed: 19.4 km/s (0.0112 au/day)
  Motion relative to 2.73K BB/CBR = apex : l= 264.7 +- 0.8; b= 48.2 +- 0.5 deg.
                                    speed: 369 +-11 km/s
*******************************************************************************
 
 
*******************************************************************************
Ephemeris / WWW_USER Wed Jun 17 12:15:34 2020 Pasadena, USA      / Horizons
*******************************************************************************
Target body name: Sun (10)                        {source: DE431mx}
Center body name: Solar System Barycenter (0)     {source: DE431mx}
Center-site name: BODY CENTER
*******************************************************************************
Start time      : A.D. 2000-Jun-05 00:00:00.0000 TDB
Stop  time      : A.D. 2040-May-26 00:00:00.0000 TDB
Step-size       : 14400 minutes
*******************************************************************************
Center geodetic : 0.00000000,0.00000000,0.0000000 {E-lon(deg),Lat(deg),Alt(km)}
Center cylindric: 0.00000000,0.00000000,0.0000000 {E-lon(deg),Dxy(km),Dz(km)}
Center radii    : (undefined)                                                  
Output units    : AU-D
Output type     : GEOMETRIC cartesian states
Output format   : 3 (position, velocity, LT, range, range-rate)
Reference frame : Ecliptic of J2000.0
*******************************************************************************
JDTDB
   X     Y     Z
   VX    VY    VZ
   LT    RG    RR
*******************************************************************************
$$SOE
2459750.500000000 = A.D. 2022-Jun-20 00:00:00.0000 TDB 
 X =-9.002852779454628E-03 Y = 1.863944276369448E-03 Z = 1.947917689790242E-04
 VX=-1.506900099040893E-06 VY=-9.053720365288152E-06 VZ= 1.040806237785226E-07
 LT= 5.311077922226895E-05 RG= 9.195846359482434E-03 RR=-3.576567433082317E-07
2459760.500000000 = A.D. 2022-Jun-30 00:00:00.0000 TDB 
 X =-9.017229504570732E-03 Y = 1.773292911640532E-03 Z = 1.958135694841557E-04
 VX=-1.368064346457276E-06 VY=-9.075180563479000E-06 VZ= 1.003062542522715E-07
 LT= 5.308871361609213E-05 RG= 9.192025818206214E-03 RR=-4.065656389868561E-07
2459770.500000000 = A.D. 2022-Jul-10 00:00:00.0000 TDB 
 X =-9.030213061685886E-03 Y = 1.682472109818149E-03 Z = 1.967993023398230E-04
 VX=-1.229112249879272E-06 VY=-9.087367410405075E-06 VZ= 9.695890999522610E-08
 LT= 5.306384261463051E-05 RG= 9.187719537793900E-03 RR=-4.539772098548209E-07
2459780.500000000 = A.D. 2022-Jul-20 00:00:00.0000 TDB 
 X =-9.041830185087384E-03 Y = 1.591568918493312E-03 Z = 1.977552030820663E-04
 VX=-1.095322808420359E-06 VY=-9.092716764252814E-06 VZ= 9.430130188037310E-08
 LT= 5.303639704913889E-05 RG= 9.182967485438318E-03 RR=-4.954078285878377E-07
2459790.500000000 = A.D. 2022-Jul-30 00:00:00.0000 TDB 
 X =-9.052133148636107E-03 Y = 1.500622534024650E-03 Z = 1.986858164344954E-04
 VX=-9.656477701074666E-07 VY=-9.096368912348531E-06 VZ= 9.181509354820997E-08
 LT= 5.300669239366942E-05 RG= 9.177824283778342E-03 RR=-5.328933601177067E-07
2459800.500000000 = A.D. 2022-Aug-09 00:00:00.0000 TDB 
 X =-9.061148453669234E-03 Y = 1.409647214863053E-03 Z = 1.995913634877437E-04
 VX=-8.376562588413111E-07 VY=-9.098340545450881E-06 VZ= 8.929344730196392E-08
 LT= 5.297487053496687E-05 RG= 9.172314499742278E-03 RR=-5.688313995898420E-07
2459810.500000000 = A.D. 2022-Aug-19 00:00:00.0000 TDB 
 X =-9.068891672857798E-03 Y = 1.318663045360072E-03 Z = 2.004718017687485E-04
 VX=-7.112848924858325E-07 VY=-9.098146524095625E-06 VZ= 8.680464034132738E-08
 LT= 5.294101630978644E-05 RG= 9.166452822358943E-03 RR=-6.032237539000049E-07
2459820.500000000 = A.D. 2022-Aug-29 00:00:00.0000 TDB 
 X =-9.075380302847094E-03 Y = 1.227690292131148E-03 Z = 2.013276909905228E-04
 VX=-5.867424168861804E-07 VY=-9.096157627398670E-06 VZ= 8.438433220756402E-08
 LT= 5.290522454087170E-05 RG= 9.160255669677436E-03 RR=-6.359391210359422E-07
2459830.500000000 = A.D. 2022-Sep-08 00:00:00.0000 TDB 
 X =-9.080631878738083E-03 Y = 1.136743779268507E-03 Z = 2.021596547272542E-04
 VX=-4.637885072548235E-07 VY=-9.092992893432781E-06 VZ= 8.201299259702753E-08
 LT= 5.286758505574257E-05 RG= 9.153738594850708E-03 RR=-6.673044703004233E-07
2459840.500000000 = A.D. 2022-Sep-18 00:00:00.0000 TDB 
 X =-9.084658839231133E-03 Y = 1.045833284355758E-03 Z = 2.029679705804111E-04
 VX=-3.416548090625549E-07 VY=-9.088934691380286E-06 VZ= 7.964957927623422E-08
 LT= 5.282815488394479E-05 RG= 9.146911472238497E-03 RR=-6.981074152059415E-07
2459850.500000000 = A.D. 2022-Sep-28 00:00:00.0000 TDB 
 X =-9.087464831477677E-03 Y = 9.549708553436375E-04 Z = 2.037527888537358E-04
 VX=-2.195593026083165E-07 VY=-9.083081422641034E-06 VZ= 7.734117072624736E-08
 LT= 5.278694265366910E-05 RG= 9.139775795765727E-03 RR=-7.290203024801500E-07
2459860.500000000 = A.D. 2022-Oct-08 00:00:00.0000 TDB 
 X =-9.089055739282785E-03 Y = 8.641837512187279E-04 Z = 2.045160977534491E-04
 VX=-9.931667439421171E-08 VY=-9.073837484935096E-06 VZ= 7.541658517716717E-08
 LT= 5.274397834215723E-05 RG= 9.132336755830904E-03 RR=-7.581131101132816E-07
2459870.500000000 = A.D. 2022-Oct-18 00:00:00.0000 TDB 
 X =-9.089468037788456E-03 Y = 7.734935155188661E-04 Z = 2.052624606960369E-04
 VX= 1.625982845043871E-08 VY=-9.064748491887812E-06 VZ= 7.385890452734242E-08
 LT= 5.269946196802250E-05 RG= 9.124628984583355E-03 RR=-7.829531393405413E-07
2459880.500000000 = A.D. 2022-Oct-28 00:00:00.0000 TDB 
 X =-9.088733033440682E-03 Y = 6.828762802864183E-04 Z = 2.059923091338463E-04
 VX= 1.309738287225908E-07 VY=-9.059196276746693E-06 VZ= 7.203860649082155E-08
 LT= 5.265354193806969E-05 RG= 9.116678177864785E-03 RR=-8.075152897744334E-07
2459890.500000000 = A.D. 2022-Nov-07 00:00:00.0000 TDB 
 X =-9.086840806078758E-03 Y = 5.923036427920895E-04 Z = 2.067017851550424E-04
 VX= 2.479364697011229E-07 VY=-9.055454771719811E-06 VZ= 6.978843211285041E-08
 LT= 5.260613524309230E-05 RG= 9.108469963076625E-03 RR=-8.346201629845653E-07
2459900.500000000 = A.D. 2022-Nov-17 00:00:00.0000 TDB 
 X =-9.083764481409644E-03 Y = 5.017672933724024E-04 Z = 2.073868039484010E-04
 VX= 3.678346101749300E-07 VY=-9.051701286794212E-06 VZ= 6.715504122480645E-08
 LT= 5.255707619054386E-05 RG= 9.099975651443779E-03 RR=-8.647543525474449E-07
2459910.500000000 = A.D. 2022-Nov-27 00:00:00.0000 TDB 
 X =-9.079473802568646E-03 Y = 4.112737199685849E-04 Z = 2.080437203701911E-04
 VX= 4.908258150818768E-07 VY=-9.046721387325834E-06 VZ= 6.417136828904099E-08
 LT= 5.250618748680301E-05 RG= 9.091164545527303E-03 RR=-8.979892946675894E-07
2459920.500000000 = A.D. 2022-Dec-07 00:00:00.0000 TDB 
 X =-9.073937253336131E-03 Y = 3.208404829657535E-04 Z = 2.086691163948682E-04
 VX= 6.170326595835611E-07 VY=-9.039448037241973E-06 VZ= 6.085360393976316E-08
 LT= 5.245328759521339E-05 RG= 9.082005213229509E-03 RR=-9.344234057702782E-07
2459930.500000000 = A.D. 2022-Dec-17 00:00:00.0000 TDB 
 X =-9.067121928363496E-03 Y = 2.304968561785933E-04 Z = 2.092597874664759E-04
 VX= 7.465946014425161E-07 VY=-9.028508767656978E-06 VZ= 5.723845253483407E-08
 LT= 5.239818707435465E-05 RG= 9.072464853785267E-03 RR=-9.742147922637618E-07
2459940.500000000 = A.D. 2022-Dec-27 00:00:00.0000 TDB 
 X =-9.058995648668871E-03 Y = 1.402905041319488E-04 Z = 2.098134781566207E-04
 VX= 8.789407942245055E-07 VY=-9.011477967787765E-06 VZ= 5.351588252132280E-08
 LT= 5.234069830057743E-05 RG= 9.062510981166715E-03 RR=-1.016861362495965E-06
2459950.500000000 = A.D. 2023-Jan-06 00:00:00.0000 TDB 
 X =-9.049547076193667E-03 Y = 5.029488626628035E-05 Z = 2.103313761292777E-04
 VX= 1.010055616944357E-06 VY=-8.986499774050740E-06 VZ= 5.015193157481712E-08
 LT= 5.228074709556346E-05 RG= 9.052130751796195E-03 RR=-1.058532248056031E-06
2459960.500000000 = A.D. 2023-Jan-16 00:00:00.0000 TDB 
 X =-9.038810597008297E-03 Y =-3.942761152973994E-05 Z = 2.108174692707879E-04
 VX= 1.136690616373484E-06 VY=-8.957789415810352E-06 VZ= 4.705691436380021E-08
 LT= 5.221851004699540E-05 RG= 9.041354740883148E-03 RR=-1.096210337056055E-06
2459970.500000000 = A.D. 2023-Jan-26 00:00:00.0000 TDB 
 X =-9.026818285507755E-03 Y =-1.288562968297047E-04 Z = 2.112717633450987E-04
 VX= 1.261673432702718E-06 VY=-8.927578725250786E-06 VZ= 4.376022223176265E-08
 LT= 5.215414192667662E-05 RG= 9.030209746334622E-03 RR=-1.132783962554753E-06
